[{"OBJECT_NAME":"OBJECT W","OBJECT_ID":"2023-081W","EPOCH":"2026-03-09T22:48:59.769792","MEAN_MOTION":15.23580425,"ECCENTRICITY":0.00107253,"INCLINATION":97.3003,"RA_OF_ASC_NODE":135.1211,"ARG_OF_PERICENTER":10.0781,"MEAN_ANOMALY":350.0669,"EPHEMERIS_TYPE":0,"CLASSIFICATION_TYPE":"U","NORAD_CAT_ID":56866,"ELEMENT_SET_NO":999,"REV_AT_EPOCH":15291,"BSTAR":0.0003543564,"MEAN_MOTION_DOT":8.423e-5,"MEAN_MOTION_DDOT":0},{"OBJECT_NAME":"OBJECT D","OBJECT_ID":"2024-105D","EPOCH":"2026-03-10T00:24:43.734240","MEAN_MOTION":15.21426907,"ECCENTRICITY":0.00113854,"INCLINATION":97.5907,"RA_OF_ASC_NODE":87.0934,"ARG_OF_PERICENTER":197.271,"MEAN_ANOMALY":162.8139,"EPHEMERIS_TYPE":0,"CLASSIFICATION_TYPE":"U","NORAD_CAT_ID":59920,"ELEMENT_SET_NO":999,"REV_AT_EPOCH":9817,"BSTAR":0.0003392179,"MEAN_MOTION_DOT":7.559e-5,"MEAN_MOTION_DDOT":0}]
